{"type":"FeatureCollection","source":"U.S. Census Bureau TIGERweb USLandmass, simplified for display","features":[{"type":"Feature","properties":{"geoid":"26","name":"Michigan"},"geometry":{"type":"Polygon","coordinates":[[[-87.06310099996993,47.799990999731044],[-84.8593350003969,46.88884300020982],[-84.76295700025024,46.63432400019986],[-84.55696200030378,46.46063899996194],[-84.47559399964682,46.452864000222725],[-84.42027399992246,46.501076999889904],[-84.27581400028174,46.49282099978451],[-84.22613099993215,46.53392000019787],[-84.12892500013022,46.530118999787405],[-84.11122500001382,46.504118999917],[-84.14617199961181,46.41851999974929],[-84.10624700023992,46.321962999983285],[-84.10808900022158,46.24123799994702],[-84.07702700042837,46.18755800014491],[-84.00568499963941,46.149551000208206],[-84.00587299996039,46.118469000270835],[-83.95542399987981,46.05718799986059],[-83.90347400029943,46.06091000016246],[-83.82624300024064,46.11928800026691],[-83.75952900031952,46.1031729998355],[-83.65464699972107,46.122054999944986],[-83.57146700011799,46.10599800030716],[-83.43355799972102,45.99889500000019],[-83.63686700013703,45.7739439997809],[-83.48397400018962,45.77193699979073],[-82.5206399996852,45.33590199980494],[-82.12297100044222,43.590827000171124],[-82.42372400031151,42.99851699968588],[-82.41669799979331,42.966424000238014],[-82.45602700021185,42.9258120002104],[-82.48257400001341,42.808644000137484],[-82.46766699955758,42.76190600028174],[-82.51893300032107,42.61373699972679],[-82.58547599963963,42.553180999912584],[-82.66188599971586,42.54174599986596],[-82.83025000018371,42.373492000034005],[-83.08002000004507,42.30717200023789],[-83.12799899960696,42.2386949999907],[-83.12170399955792,42.12543100011937],[-83.14944999963384,42.04026399967423],[-83.11246000021274,41.959410000268015],[-83.4158509999319,41.73379400011398],[-84.80599599967304,41.69611800009349],[-84.80588500024328,41.760171000018],[-87.20777400004597,41.760955999928086],[-87.01986300035549,42.4937630000481],[-87.14716600002801,43.379859000140605],[-87.11410200041956,43.73411099992129],[-87.01323400039563,44.13190499978231],[-86.68628799982876,44.88100200000284],[-86.49993000041495,45.08079999981919],[-86.2495479999101,45.23612499994635],[-86.75423600018432,45.44360999972072],[-87.10113300020484,45.44423000019731],[-87.17117000041426,45.352540000132414],[-87.31542199964251,45.24065699987353],[-87.40569399988604,45.201969000084915],[-87.44250799958003,45.07643399983069],[-87.65995199997481,45.10751200031465],[-87.74181000017825,45.19746900003295],[-87.64812599995794,45.33939599982396],[-87.65735000010996,45.368754000076315],[-87.69395600028982,45.389892999795386],[-87.75410400000025,45.34944200003131],[-87.88805200042447,45.3546969998267],[-87.84932200023064,45.40387199975319],[-87.86169700024352,45.43447300008133],[-87.79276899989675,45.4999670000331],[-87.8336900000517,45.5615559998698],[-87.79237200023672,45.56305500003462],[-87.77719899964208,45.588498000198506],[-87.82439200027983,45.64771000011407],[-87.7822259998198,45.683052999898706],[-87.87689800042723,45.75437900015843],[-87.96345200037224,45.758220000235234],[-87.99144699997018,45.795393000120214],[-88.07216699999863,45.78008500009517],[-88.1301289997708,45.8097079997687],[-88.06976299960218,45.87293800028084],[-88.10126399978653,45.88228199995993],[-88.10246100041104,45.921546000240824],[-88.24689400028755,45.96353200028128],[-88.3272760002072,45.9549570000979],[-88.38050299987974,45.99176499984076],[-88.41638099996347,45.9750919997559],[-88.48935499977348,45.991367000209806],[-88.51469200032837,46.020018999995465],[-88.67082700037322,45.98854700003789],[-88.67886800014443,46.013595000305706],[-88.81602599998072,46.020585999958406],[-89.09163800001203,46.13844699999744],[-90.12057199965373,46.33703900025158],[-90.21663699980593,46.5016370000446],[-90.31655400015096,46.51689599992806],[-90.3322299998125,46.55343199995757],[-90.39326200015302,46.53243300011486],[-90.41839200012036,46.566099000200886],[-89.48338500037322,48.01371600014225],[-89.33754999983276,47.97426099995918],[-88.67744200008937,48.24539700021191],[-88.3698619998935,48.306062999958236],[-87.06310099996993,47.799990999731044]]]}},{"type":"Feature","properties":{"geoid":"18","name":"Indiana"},"geometry":{"type":"Polygon","coordinates":[[[-87.52672699962389,41.30048499996938],[-87.52366100015183,41.75990699999969],[-84.80588500024328,41.760171000018],[-84.80381788107329,41.3],[-87.52672699962389,41.30048499996938]]]}},{"type":"Feature","properties":{"geoid":"55","name":"Wisconsin"},"geometry":{"type":"Polygon","coordinates":[[[-91.2,47.05606646058981],[-90.65465999966452,47.30982200019525],[-89.9571020001925,47.29110300025223],[-90.41839200012036,46.566099000200886],[-90.39506899997458,46.53376800011804],[-90.3322299998125,46.55343199995757],[-90.31655400015096,46.51689599992806],[-90.21681099988321,46.50176799971764],[-90.12057199965373,46.33703900025158],[-89.09163800001203,46.13844699999744],[-88.81602599998072,46.020585999958406],[-88.67886800014443,46.013595000305706],[-88.67082700037322,45.98854700003789],[-88.51469200032837,46.020018999995465],[-88.48935499977348,45.991367000209806],[-88.41638099996347,45.9750919997559],[-88.38050299987974,45.99176499984076],[-88.3272760002072,45.9549570000979],[-88.24689400028755,45.96353200028128],[-88.10246100041104,45.921546000240824],[-88.10126399978653,45.88228199995993],[-88.06976299960218,45.87293800028084],[-88.1301289997708,45.8097079997687],[-88.07216699999863,45.78008500009517],[-87.99144699997018,45.795393000120214],[-87.96345200037224,45.758220000235234],[-87.87689800042723,45.75437900015843],[-87.7822259998198,45.683052999898706],[-87.82439200027983,45.64771000011407],[-87.77719899964208,45.588498000198506],[-87.79237200023672,45.56305500003462],[-87.8336900000517,45.5615559998698],[-87.79276899989675,45.4999670000331],[-87.86169700024352,45.43447300008133],[-87.84932200023064,45.40387199975319],[-87.88805200042447,45.3546969998267],[-87.75410400000025,45.34944200003131],[-87.69395600028982,45.389892999795386],[-87.65735000010996,45.368754000076315],[-87.64812599995794,45.33939599982396],[-87.74181000017825,45.19746900003295],[-87.65995199997481,45.10751200031465],[-87.44250799958003,45.07643399983069],[-87.40569399988604,45.201969000084915],[-87.31542199964251,45.24065699987353],[-87.17117000041426,45.352540000132414],[-87.10113300020484,45.44423000019731],[-86.75423600018432,45.44360999972072],[-86.2495479999101,45.23612499994635],[-86.49993000041495,45.08079999981919],[-86.68628799982876,44.88100200000284],[-87.01323400039563,44.13190499978231],[-87.11410200041956,43.73411099992129],[-87.14716600002801,43.379859000140605],[-87.01993500032552,42.4934979997221],[-90.63992700018427,42.508201999821324],[-90.70920399961216,42.636078000316175],[-90.94921000044462,42.685569000321074],[-91.05373300011956,42.738238000322234],[-91.10056500018396,42.883078000216855],[-91.14561499964286,42.90800600013706],[-91.17945699957613,43.06742700031004],[-91.17525299992913,43.13466499999594],[-91.05791800039832,43.25536600002259],[-91.10723699980153,43.313644999901754],[-91.2,43.34890235774287],[-91.2,47.05606646058981]]]}},{"type":"Feature","properties":{"geoid":"39","name":"Ohio"},"geometry":{"type":"Polygon","coordinates":[[[-84.80381099955972,41.30057799995477],[-84.80597200028193,41.69611800009349],[-83.4158509999319,41.73379400011398],[-83.11246000021274,41.959410000268015],[-83.06931200011167,41.86421699976892],[-82.68111900001746,41.67632799986298],[-82.39834800029688,41.676524000030255],[-81.7,42.00003700018726],[-81.7,41.3],[-84.80381099955972,41.30057799995477]]]}}]}