{"type":"FeatureCollection","source":"Natural Earth 1:50m lakes, public domain","features":[{"type":"Feature","properties":{"name":"L. Erie"},"geometry":{"type":"Polygon","coordinates":[[[-83.46796874999998,42.090576171875],[-83.29531249999997,42.052490234375],[-83.10039062499997,42.002783203125],[-82.95097656249999,41.96240234375],[-82.81328124999999,41.921630859375],[-82.67695312499998,41.895263671875],[-82.51455078124997,41.91064453125],[-82.36777343749999,41.96376953125],[-82.24277343749998,42.037060546875],[-82.13847656249999,42.110888671875],[-82.04482421874998,42.1828125],[-81.95156249999997,42.262646484375],[-81.86601562499999,42.357470703125],[-81.79638671875,42.4708984375],[-81.74306640624997,42.591357421875],[-81.705078125,42.725634765625],[-81.70742187499998,42.844873046875],[-81.74375,42.93359375],[-81.83173828124998,42.984130859375],[-81.94853515624999,42.998095703125],[-82.07216796874998,42.97958984375],[-82.20722656249998,42.9392578125],[-82.3515625,42.88115234375],[-82.49287109374998,42.811865234375],[-82.63339843749999,42.727587890625],[-82.76582031249998,42.63466796875],[-82.88613281249998,42.534619140625],[-82.99892578124998,42.42314453125],[-83.10332031249999,42.302783203125],[-83.20136718749998,42.1818359375],[-83.302734375,42.10068359375],[-83.40292968749998,42.07626953125],[-83.46796874999998,42.090576171875]]]}},{"type":"Feature","properties":{"name":"L. Ontario"},"geometry":{"type":"Polygon","coordinates":[[[-79.76240234374998,43.224365234375],[-79.64003906249998,43.1876953125],[-79.49433593749998,43.182861328125],[-79.34765625,43.197021484375],[-79.21054687499998,43.224658203125],[-79.06328124999999,43.25830078125],[-78.90410156249999,43.3033203125],[-78.7373046875,43.356396484375],[-78.56660156249998,43.41865234375],[-78.3974609375,43.48828125],[-78.23691406249998,43.566162109375],[-78.09160156249999,43.648486328125],[-77.96113281249998,43.728076171875],[-77.85117187499998,43.80576171875],[-77.76113281249998,43.885986328125],[-77.70957031249998,43.96279296875],[-77.71835937499998,44.01806640625],[-77.78730468749998,44.0529296875],[-77.90546874999998,44.068701171875],[-78.06308593749998,44.06796875],[-78.24257812499998,44.05107421875],[-78.43183593749998,44.019775390625],[-78.6181640625,43.97412109375],[-78.80156249999998,43.915283203125],[-78.97441406249999,43.84482421875],[-79.13027343749998,43.76640625],[-79.26933593749998,43.6818359375],[-79.39199218749998,43.59140625],[-79.49941406249998,43.49931640625],[-79.59375,43.406640625],[-79.67695312499998,43.31689453125],[-79.76240234374998,43.224365234375]]]}},{"type":"Feature","properties":{"name":"L. St. Clair"},"geometry":{"type":"Polygon","coordinates":[[[-82.8798828125,42.492529296875],[-82.80878906249998,42.486865234375],[-82.73593749999998,42.506689453125],[-82.66718749999998,42.543017578125],[-82.6162109375,42.591357421875],[-82.59785156249998,42.646484375],[-82.61953124999998,42.704443359375],[-82.67910156249998,42.758056640625],[-82.76171875,42.79951171875],[-82.85078124999998,42.821826171875],[-82.9306640625,42.817333984375],[-82.98476562499998,42.78125],[-83.00234374999998,42.723291015625],[-82.98183593749998,42.6572265625],[-82.92988281249998,42.596142578125],[-82.8798828125,42.492529296875]]]}},{"type":"Feature","properties":{"name":"Lake Michigan"},"geometry":{"type":"Polygon","coordinates":[[[-87.2294921875,41.861083984375],[-87.10195312499998,41.8943359375],[-86.9794921875,41.947802734375],[-86.8642578125,42.018310546875],[-86.75839843749998,42.10615234375],[-86.66523437499998,42.211474609375],[-86.5849609375,42.3341796875],[-86.51875,42.4712890625],[-86.46718749999998,42.619091796875],[-86.42988281249998,42.7744140625],[-86.40664062499998,42.934619140625],[-86.39453125,43.098193359375],[-86.3916015625,43.26318359375],[-86.39765624999998,43.428076171875],[-86.412109375,43.592724609375],[-86.435546875,43.756005859375],[-86.46738281249998,43.91728515625],[-86.50742187499998,44.076171875],[-86.55507812499998,44.23173828125],[-86.611328125,44.3826171875],[-86.67656249999998,44.527685546875],[-86.75136718749998,44.665966796875],[-86.83632812499998,44.7958984375],[-86.93203124999998,44.915771484375],[-87.03847656249998,45.023193359375],[-87.15585937499998,45.11591796875],[-87.2841796875,45.19033203125],[-87.42226562499998,45.243505859375],[-87.56796874999998,45.272607421875],[-87.71601562499998,45.2755859375],[-87.8603515625,45.251416015625],[-87.99433593749998,45.2005859375],[-88.11210937499998,45.12421875],[-88.20820312499998,45.024462890625],[-88.2783203125,44.904443359375],[-88.32070312499998,44.768603515625],[-88.33476562499998,44.62119140625],[-88.32167968749998,44.465625],[-88.2841796875,44.305322265625],[-88.22597656249998,44.1431640625],[-88.15292968749998,43.981396484375],[-88.06953124999998,43.820556640625],[-87.97929687499998,43.65966796875],[-87.88417968749998,43.49619140625],[-87.78554687499998,43.32763671875],[-87.685546875,43.152783203125],[-87.58652343749998,42.97021484375],[-87.490625,42.7802734375],[-87.40078124999998,42.5841796875],[-87.3203125,42.383642578125],[-87.253125,42.181787109375],[-87.2041015625,41.98466796875],[-87.1884765625,41.891552734375],[-87.2294921875,41.861083984375]]]}},{"type":"Feature","properties":{"name":"Lake Superior"},"geometry":{"type":"Polygon","coordinates":[[[-92.08945312499998,46.78486328125],[-91.884765625,46.737109375],[-91.65234375,46.7265625],[-91.40507812499999,46.75224609375],[-91.15214843749998,46.807958984375],[-90.8984375,46.88876953125],[-90.646875,46.99052734375],[-90.39804687499998,47.10888671875],[-90.15292968749998,47.239404296875],[-89.91152343749998,47.377099609375],[-89.67597656249998,47.516650390625],[-89.44785156249998,47.653662109375],[-89.22890624999998,47.78427734375],[-89.02207031249998,47.90517578125],[-88.830078125,48.014697265625],[-88.65449218749998,48.11259765625],[-88.49648437499998,48.19951171875],[-88.35625,48.276953125],[-88.23222656249998,48.347119140625],[-88.12285156249998,48.41376953125],[-88.02695312499998,48.48154296875],[-87.94453124999998,48.556396484375],[-87.87734374999998,48.644140625],[-87.83066406249998,48.7501953125],[-87.8125,48.878466796875],[-87.83046874999998,49.025244140625],[-87.88828124999998,49.17890625],[-87.9853515625,49.323095703125],[-88.11777343749998,49.44140625],[-88.27871093749998,49.5193359375],[-88.45703125,49.55078125],[-88.64316406249998,49.538330078125],[-88.83066406249998,49.48935546875],[-89.01523437499998,49.413330078125],[-89.1943359375,49.320556640625],[-89.36679687499998,49.220947265625],[-89.5322265625,49.121044921875],[-89.69121093749998,49.026220703125],[-89.8447265625,48.9390625],[-89.994140625,48.859619140625],[-90.1416015625,48.78466796875],[-90.29082031249998,48.7087890625],[-90.4453125,48.626025390625],[-90.607421875,48.530322265625],[-90.77871093749998,48.417724609375],[-90.95917968749998,48.28701171875],[-91.14707031249998,48.140576171875],[-91.33867187499998,47.984814453125],[-91.52890624999998,47.83046875],[-91.7099609375,47.691845703125],[-91.871875,47.5841796875],[-92.0048828125,47.522021484375],[-92.09882812499998,47.5158203125],[-92.1494140625,47.56865234375],[-92.15898437499998,47.67314453125],[-92.1337890625,47.81279296875],[-92.08476562499998,47.966650390625],[-92.02480468749998,48.1158203125],[-91.96601562499998,48.247265625],[-91.91855468749998,48.358203125],[-91.88613281249998,48.45341796875],[-91.86503906249998,48.540380859375],[-91.84609374999998,48.62646484375],[-91.8193359375,48.717822265625],[-91.77734375,48.819775390625],[-91.716796875,48.936279296875],[-91.63710937499998,49.068359375],[-91.54023437499998,49.21240234375],[-91.43183593749998,49.359814453125],[-91.31953124999998,49.49990234375],[-91.21132812499998,49.620458984375],[-91.11269531249998,49.7103515625],[-91.02480468749998,49.762353515625],[-90.9443359375,49.77607421875],[-90.86386718749998,49.75771484375],[-90.77363281249998,49.7166015625],[-90.66367187499998,49.661767578125],[-90.52695312499998,49.600244140625],[-90.36074218749998,49.5341796875],[-90.16953124999998,49.461279296875],[-89.96171874999998,49.375341796875],[-89.74863281249998,49.269140625],[-89.54277343749998,49.136279296875],[-89.35683593749998,48.974267578125],[-89.201171875,48.7849609375],[-89.08183593749998,48.574169921875],[-88.99941406249998,48.3505859375],[-88.951171875,48.12451171875],[-88.93183593749998,47.905908203125],[-88.9345703125,47.701220703125],[-88.95156249999998,47.513623046875],[-88.97421874999998,47.343017578125],[-88.99238281249998,47.18701171875],[-88.99921874999998,47.041064453125],[-88.994140625,46.900732421875],[-88.98691406249998,46.764306640625],[-89.00078124999998,46.63271484375],[-89.06035156249998,46.516259765625],[-89.1787109375,46.433984375],[-89.35039062499998,46.401416015625],[-89.55859375,46.42080078125],[-89.7841796875,46.48369140625],[-90.01015624999998,46.575244140625],[-90.224609375,46.67841796875],[-90.42050781249998,46.7787109375],[-90.59902343749998,46.866796875],[-90.76582031249998,46.937060546875],[-90.931640625,46.985107421875],[-91.10703124999998,47.0078125],[-91.29921874999998,47.00341796875],[-91.51132812499998,46.974365234375],[-91.740625,46.929443359375],[-91.94980468749998,46.871875],[-92.08945312499998,46.78486328125]]]}},{"type":"Feature","properties":{"name":"Lake Huron"},"geometry":{"type":"Polygon","coordinates":[[[-84.73007812499998,45.797509765625],[-84.6171875,45.7171875],[-84.49140624999998,45.66171875],[-84.35781249999998,45.629833984375],[-84.22519531249998,45.618603515625],[-84.10234374999998,45.62548828125],[-83.99140624999998,45.649169921875],[-83.89238281249998,45.68876953125],[-83.80195312499998,45.743408203125],[-83.71640624999998,45.812109375],[-83.63300781249998,45.893798828125],[-83.5517578125,45.986376953125],[-83.47226562499998,46.0873046875],[-83.39785156249998,46.19375],[-83.33027343749998,46.30185546875],[-83.271484375,46.40712890625],[-83.2236328125,46.505029296875],[-83.189453125,46.5904296875],[-83.17148437499998,46.658544921875],[-83.1708984375,46.705126953125],[-83.18886718749998,46.72587890625],[-83.22304687499998,46.7197265625],[-83.27109374999998,46.689111328125],[-83.33027343749998,46.639501953125],[-83.39902343749998,46.578173828125],[-83.47480468749998,46.51240234375],[-83.55488281249998,46.448388671875],[-83.63554687499998,46.39267578125],[-83.71210937499998,46.350537109375],[-83.78066406249998,46.325],[-83.83964843749998,46.31552734375],[-83.88789062499998,46.3189453125],[-83.92753906249998,46.330224609375],[-83.96347656249998,46.343310546875],[-84.001953125,46.35283203125],[-84.04902343749998,46.35537109375],[-84.10781249999998,46.349609375],[-84.17929687499998,46.3373046875],[-84.26230468749998,46.322265625],[-84.35488281249998,46.310302734375],[-84.45390624999998,46.30732421875],[-84.5546875,46.320458984375],[-84.65195312499998,46.355859375],[-84.73964843749998,46.416552734375],[-84.81191406249998,46.50107421875],[-84.86269531249998,46.60263671875],[-84.88710937499998,46.710400390625],[-84.88496093749998,46.810791015625],[-84.86171874999998,46.890625],[-84.82792968749998,46.941845703125],[-84.79765624999998,46.964111328125],[-84.78378906249998,46.9662109375],[-84.78769531249998,46.956494140625],[-84.80644531249998,46.94384765625],[-84.83574218749998,46.936328125],[-84.87031249999998,46.9388671875],[-84.90410156249998,46.954931640625],[-84.93046874999998,46.986328125],[-84.94140625,47.033154296875],[-84.92851562499998,47.09375],[-84.88925781249998,47.163720703125],[-84.82265624999998,47.237353515625],[-84.72968749999998,47.307421875],[-84.615625,47.36611328125],[-84.4892578125,47.406640625],[-84.36171874999998,47.42470703125],[-84.24492187499998,47.4185546875],[-84.14960937499998,47.390673828125],[-84.084375,47.3478515625],[-84.05253906249998,47.299609375],[-84.0537109375,47.255322265625],[-84.08359374999998,47.221044921875],[-84.13632812499998,47.19873046875],[-84.20371093749998,47.184130859375],[-84.27675781249998,47.1697265625],[-84.34531249999998,47.1474609375],[-84.40019531249998,47.108349609375],[-84.43496093749998,47.04521484375],[-84.44648437499998,46.953466796875],[-84.43671874999998,46.83291015625],[-84.40957031249998,46.6880859375],[-84.36933593749998,46.528857421875],[-84.32148437499998,46.3693359375],[-84.27363281249998,46.22587890625],[-84.23457031249998,46.111474609375],[-84.21230468749998,46.03251953125],[-84.21113281249998,45.989794921875],[-84.23085937499998,45.97763671875],[-84.26875,45.985302734375],[-84.31816406249998,46.00009765625],[-84.3701171875,46.01044921875],[-84.41445312499998,46.006103515625],[-84.44160156249998,45.9783203125],[-84.44453124999998,45.921923828125],[-84.42207031249998,45.8361328125],[-84.37617187499998,45.72578125],[-84.3115234375,45.601513671875],[-84.23828125,45.477734375],[-84.16816406249998,45.3677734375],[-84.1123046875,45.28115234375],[-84.08066406249998,45.22275390625],[-84.07871093749998,45.194970703125],[-84.10566406249998,45.198095703125],[-84.15898437499998,45.230615234375],[-84.23378906249998,45.28916015625],[-84.32421875,45.368701171875],[-84.42226562499998,45.462744140625],[-84.51992187499998,45.563330078125],[-84.60917968749998,45.662353515625],[-84.68203124999998,45.752001953125],[-84.73007812499998,45.797509765625]]]}},{"type":"Feature","properties":{"name":"Lake Nipigon"},"geometry":{"type":"Polygon","coordinates":[[[-89.36074218749998,49.083740234375],[-89.24472656249998,49.046337890625],[-89.11796874999998,49.037939453125],[-88.98671874999998,49.055615234375],[-88.859375,49.097509765625],[-88.74492187499998,49.159326171875],[-88.6513671875,49.233544921875],[-88.5859375,49.3103515625],[-88.55390624999998,49.379345703125],[-88.55742187499998,49.431201171875],[-88.59433593749998,49.460400390625],[-88.66093749999998,49.465771484375],[-88.74609375,49.451318359375],[-88.83847656249998,49.425634765625],[-88.92792968749998,49.399951171875],[-89.0068359375,49.385302734375],[-89.07421875,49.390478515625],[-89.13535156249998,49.419775390625],[-89.19941406249998,49.471923828125],[-89.2734375,49.539892578125],[-89.35800781249998,49.611376953125],[-89.44667968749998,49.669482421875],[-89.52871093749998,49.698583984375],[-89.5927734375,49.6876953125],[-89.6298828125,49.63427734375],[-89.63398437499998,49.5462890625],[-89.60468749999998,49.438623046875],[-89.55117187499998,49.329541015625],[-89.48652343749998,49.235595703125],[-89.42011718749998,49.168603515625],[-89.36074218749998,49.083740234375]]]}},{"type":"Feature","properties":{"name":"Oneida L."},"geometry":{"type":"Polygon","coordinates":[[[-76.17890624999998,43.164990234375],[-76.13496093749998,43.13525390625],[-76.08125,43.123193359375],[-76.02617187499998,43.132861328125],[-75.97636718749998,43.161181640625],[-75.93925781249998,43.2025390625],[-75.92011718749998,43.249072265625],[-75.9228515625,43.291943359375],[-75.94707031249998,43.323583984375],[-75.98828125,43.338525390625],[-76.03769531249998,43.335595703125],[-76.08730468749998,43.31884765625],[-76.12929687499998,43.294189453125],[-76.15957031249998,43.2673828125],[-76.17695312499998,43.24111328125],[-76.18398437499998,43.2146484375],[-76.17890624999998,43.164990234375]]]}},{"type":"Feature","properties":{"name":"Lake Winnebago"},"geometry":{"type":"Polygon","coordinates":[[[-88.61894531249998,43.8142578125],[-88.57382812499998,43.795654296875],[-88.52207031249998,43.793701171875],[-88.47148437499998,43.80849609375],[-88.42949218749998,43.837646484375],[-88.40175781249998,43.876904296875],[-88.39121093749998,43.92041015625],[-88.3974609375,43.962744140625],[-88.41855468749998,43.9990234375],[-88.45058593749998,44.0255859375],[-88.48886718749998,44.041650390625],[-88.52910156249998,44.0494140625],[-88.56660156249998,44.050048828125],[-88.5966796875,44.04013671875],[-88.61738281249998,44.0140625],[-88.628125,43.9705078125],[-88.62890625,43.91640625],[-88.62285156249998,43.861328125],[-88.61894531249998,43.8142578125]]]}},{"type":"Feature","properties":{"name":"Cayuga L."},"geometry":{"type":"Polygon","coordinates":[[[-76.62265624999998,42.398486328125],[-76.60468749999998,42.412451171875],[-76.59003906249998,42.43818359375],[-76.58027343749998,42.473583984375],[-76.57734374999998,42.514013671875],[-76.58164062499998,42.55458984375],[-76.59257812499998,42.590478515625],[-76.60878906249998,42.617724609375],[-76.62871093749998,42.634716796875],[-76.65058593749998,42.64140625],[-76.67167968749998,42.638720703125],[-76.68925781249998,42.628173828125],[-76.70136718749998,42.611279296875],[-76.70683593749998,42.58955078125],[-76.705078125,42.5634765625],[-76.69609374999998,42.53212890625],[-76.68027343749998,42.49306640625],[-76.6591796875,42.44775390625],[-76.63847656249998,42.410009765625],[-76.62265624999998,42.398486328125]]]}},{"type":"Feature","properties":{"name":"Cayuga L."},"geometry":{"type":"Polygon","coordinates":[[[-76.73613281249998,42.7244140625],[-76.7177734375,42.7341796875],[-76.70449218749998,42.754541015625],[-76.69707031249998,42.783349609375],[-76.69570312499998,42.81796875],[-76.70039062499998,42.854052734375],[-76.71015624999998,42.88671875],[-76.7236328125,42.911181640625],[-76.73886718749998,42.923681640625],[-76.7548828125,42.9234375],[-76.76992187499998,42.91083984375],[-76.78203124999998,42.88759765625],[-76.78925781249998,42.8572265625],[-76.79082031249998,42.823193359375],[-76.7861328125,42.78955078125],[-76.77519531249998,42.76083984375],[-76.75761718749998,42.73798828125],[-76.73613281249998,42.7244140625]]]}},{"type":"Feature","properties":{"name":"Cayuga L."},"geometry":{"type":"Polygon","coordinates":[[[-76.88632812499998,42.7939453125],[-76.86972656249998,42.805419921875],[-76.85898437499998,42.828466796875],[-76.85488281249998,42.858349609375],[-76.85800781249998,42.889794921875],[-76.8671875,42.918115234375],[-76.880859375,42.93798828125],[-76.89667968749998,42.94580078125],[-76.912109375,42.940234375],[-76.92441406249998,42.922607421875],[-76.93183593749998,42.896435546875],[-76.93320312499998,42.866064453125],[-76.92792968749998,42.83681640625],[-76.9169921875,42.8123046875],[-76.90234375,42.79716796875],[-76.88632812499998,42.7939453125]]]}},{"type":"Feature","properties":{"name":"Lake Nipissing"},"geometry":{"type":"Polygon","coordinates":[[[-79.82792968749998,46.174609375],[-79.76679687499998,46.159765625],[-79.70078124999998,46.1625],[-79.63691406249998,46.1822265625],[-79.58281249999998,46.215087890625],[-79.54531249999998,46.25673828125],[-79.528125,46.301904296875],[-79.53261718749998,46.344384765625],[-79.55703124999998,46.378662109375],[-79.59648437499998,46.40029296875],[-79.64375,46.407861328125],[-79.69121093749998,46.403466796875],[-79.7314453125,46.392626953125],[-79.76093749999998,46.383251953125],[-79.78378906249998,46.37685546875],[-79.80625,46.369921875],[-79.83164062499998,46.35693359375],[-79.85996093749998,46.335546875],[-79.88671875,46.306103515625],[-79.90507812499998,46.272998046875],[-79.90781249999998,46.24140625],[-79.89121093749998,46.21611328125],[-79.86484374999998,46.196240234375],[-79.82792968749998,46.174609375]]]}},{"type":"Feature","properties":{"name":"Finger Lakes"},"geometry":{"type":"Polygon","coordinates":[[[-77.40566406249998,42.614501953125],[-77.38984374999998,42.62578125],[-77.38164062499998,42.648828125],[-77.38105468749998,42.67724609375],[-77.38789062499998,42.703955078125],[-77.39960937499998,42.722265625],[-77.41386718749998,42.727685546875],[-77.42656249999998,42.718603515625],[-77.43476562499998,42.697998046875],[-77.43691406249998,42.671875],[-77.43222656249998,42.64541015625],[-77.421875,42.624755859375],[-77.40566406249998,42.614501953125]]]}},{"type":"Feature","properties":{"name":"Finger Lakes"},"geometry":{"type":"Polygon","coordinates":[[[-77.740234375,42.55947265625],[-77.72421874999998,42.56865234375],[-77.7158203125,42.59033203125],[-77.71484375,42.61884765625],[-77.720703125,42.647509765625],[-77.73125,42.669677734375],[-77.74472656249998,42.678955078125],[-77.7578125,42.672509765625],[-77.767578125,42.653125],[-77.771484375,42.62685546875],[-77.76894531249998,42.59990234375],[-77.75996093749998,42.577392578125],[-77.74609375,42.562451171875],[-77.740234375,42.55947265625]]]}},{"type":"Feature","properties":{"name":"Finger Lakes"},"geometry":{"type":"Polygon","coordinates":[[[-77.94140625,42.44775390625],[-77.92832031249998,42.458203125],[-77.92109374999998,42.48095703125],[-77.919921875,42.5080078125],[-77.92460937499998,42.5322265625],[-77.93339843749998,42.5484375],[-77.94492187499998,42.55205078125],[-77.95625,42.542919921875],[-77.96425781249998,42.52353515625],[-77.96796874999998,42.49951171875],[-77.965625,42.476220703125],[-77.95683593749998,42.45859375],[-77.9443359375,42.448876953125],[-77.94140625,42.44775390625]]]}},{"type":"Feature","properties":{"name":"Lac des Mille Lacs"},"geometry":{"type":"Polygon","coordinates":[[[-90.67578125,48.84716796875],[-90.6181640625,48.83251953125],[-90.55605468749998,48.838720703125],[-90.49941406249998,48.862353515625],[-90.45781249999998,48.8970703125],[-90.43730468749998,48.93544921875],[-90.44199218749998,48.970166015625],[-90.47109374999998,48.9951171875],[-90.5166015625,49.007177734375],[-90.5673828125,49.0060546875],[-90.61210937499998,48.997412109375],[-90.64472656249998,48.98623046875],[-90.6650390625,48.97421875],[-90.678125,48.95927734375],[-90.68867187499998,48.938427734375],[-90.69667968749998,48.91220703125],[-90.69921875,48.884814453125],[-90.69492187499998,48.862451171875],[-90.68691406249998,48.848779296875],[-90.67578125,48.84716796875]]]}},{"type":"Feature","properties":{"name":"Rés. Baskatong"},"geometry":{"type":"Polygon","coordinates":[[[-75.94140625,46.645703125],[-75.88242187499998,46.62607421875],[-75.81777343749998,46.626171875],[-75.7607421875,46.644775390625],[-75.7216796875,46.677197265625],[-75.70781249999998,46.716796875],[-75.72148437499998,46.7544921875],[-75.75957031249998,46.781494140625],[-75.81132812499998,46.793017578125],[-75.86406249999998,46.7892578125],[-75.90664062499998,46.77392578125],[-75.93359375,46.750390625],[-75.9453125,46.72294921875],[-75.94648437499998,46.697216796875],[-75.9443359375,46.6763671875],[-75.94140625,46.645703125]]]}},{"type":"Feature","properties":{"name":"L. Abitibi"},"geometry":{"type":"Polygon","coordinates":[[[-79.65683593749998,48.576318359375],[-79.59785156249998,48.55966796875],[-79.5341796875,48.56240234375],[-79.4794921875,48.5822265625],[-79.4443359375,48.615283203125],[-79.43320312499998,48.65517578125],[-79.44746093749998,48.692236328125],[-79.48496093749998,48.7173828125],[-79.53457031249998,48.726708984375],[-79.58378906249998,48.72197265625],[-79.62246093749998,48.708447265625],[-79.646484375,48.692333984375],[-79.66035156249998,48.676904296875],[-79.66875,48.660693359375],[-79.6748046875,48.63994140625],[-79.67734374999998,48.616455078125],[-79.673828125,48.59501953125],[-79.66660156249998,48.58037109375],[-79.65683593749998,48.576318359375]]]}},{"type":"Feature","properties":{"name":"Lake Simcoe"},"geometry":{"type":"Polygon","coordinates":[[[-79.43613281249998,44.324951171875],[-79.38515624999998,44.311083984375],[-79.33066406249998,44.31513671875],[-79.28183593749998,44.335546875],[-79.24531249999998,44.368994140625],[-79.22695312499998,44.410498046875],[-79.23027343749998,44.45341796875],[-79.25449218749998,44.489404296875],[-79.29453124999998,44.51181640625],[-79.34296874999998,44.518408203125],[-79.39042968749998,44.5111328125],[-79.4287109375,44.49462890625],[-79.45429687499998,44.474658203125],[-79.46738281249998,44.45517578125],[-79.47285156249998,44.43759765625],[-79.47402343749998,44.420947265625],[-79.47128906249998,44.403955078125],[-79.4638671875,44.384814453125],[-79.4521484375,44.36162109375],[-79.43613281249998,44.324951171875]]]}},{"type":"Feature","properties":{"name":"Rainy Lake"},"geometry":{"type":"Polygon","coordinates":[[[-93.5,48.57041015625],[-93.4326171875,48.560400390625],[-93.36054687499998,48.565576171875],[-93.29218749999998,48.585205078125],[-93.23691406249998,48.616748046875],[-93.20156249999998,48.656494140625],[-93.18925781249998,48.698388671875],[-93.20156249999998,48.735791015625],[-93.23457031249998,48.76220703125],[-93.2802734375,48.7744140625],[-93.32871093749998,48.772607421875],[-93.37050781249998,48.761572265625],[-93.40195312499998,48.746923828125],[-93.42324218749998,48.733251953125],[-93.4404296875,48.7205078125],[-93.45761718749998,48.703466796875],[-93.47597656249998,48.679345703125],[-93.4921875,48.6494140625],[-93.5,48.61953125],[-93.5,48.57041015625]]]}},{"type":"Feature","properties":{"name":""},"geometry":{"type":"Polygon","coordinates":[[[-81.39082031249998,46.00771484375],[-81.337890625,45.997509765625],[-81.28339843749998,46.00380859375],[-81.23769531249998,46.023291015625],[-81.20742187499998,46.051513671875],[-81.19843749999998,46.08466796875],[-81.21113281249998,46.11435546875],[-81.2421875,46.134814453125],[-81.28261718749998,46.141552734375],[-81.32285156249998,46.1359375],[-81.3544921875,46.122314453125],[-81.37539062499998,46.106298828125],[-81.38710937499998,46.091455078125],[-81.39218749999998,46.075830078125],[-81.39316406249998,46.05634765625],[-81.39082031249998,46.00771484375]]]}},{"type":"Feature","properties":{"name":""},"geometry":{"type":"Polygon","coordinates":[[[-81.98964843749998,45.894384765625],[-81.94160156249998,45.881396484375],[-81.89003906249998,45.884228515625],[-81.84589843749998,45.901806640625],[-81.81621093749998,45.93115234375],[-81.80644531249998,45.96533203125],[-81.81757812499998,45.997314453125],[-81.84648437499998,46.0203125],[-81.8857421875,46.030224609375],[-81.92695312499998,46.027099609375],[-81.96152343749998,46.014794921875],[-81.98417968749998,45.99697265625],[-81.99609375,45.977294921875],[-81.9990234375,45.959423828125],[-81.99765624999998,45.9443359375],[-81.9951171875,45.930029296875],[-81.98964843749998,45.894384765625]]]}},{"type":"Feature","properties":{"name":""},"geometry":{"type":"Polygon","coordinates":[[[-82.70273437499998,45.245947265625],[-82.6572265625,45.232568359375],[-82.6083984375,45.235986328125],[-82.56640625,45.2537109375],[-82.5380859375,45.282470703125],[-82.52871093749998,45.316455078125],[-82.5390625,45.348291015625],[-82.56601562499998,45.371484375],[-82.6025390625,45.381494140625],[-82.64082031249998,45.378857421875],[-82.6728515625,45.367138671875],[-82.69414062499998,45.350244140625],[-82.70566406249998,45.331494140625],[-82.7099609375,45.314599609375],[-82.71054687499998,45.300146484375],[-82.70878906249998,45.286376953125],[-82.70273437499998,45.245947265625]]]}},{"type":"Feature","properties":{"name":""},"geometry":{"type":"Polygon","coordinates":[[[-82.97402343749998,45.680908203125],[-82.93085937499998,45.668115234375],[-82.884765625,45.670947265625],[-82.84492187499998,45.687353515625],[-82.81796874999998,45.71416015625],[-82.80859375,45.74599609375],[-82.8173828125,45.776171875],[-82.841796875,45.79853515625],[-82.87656249999998,45.808984375],[-82.91386718749998,45.80732421875],[-82.94550781249998,45.796630859375],[-82.96718749999998,45.780810546875],[-82.97929687499998,45.763330078125],[-82.98417968749998,45.747509765625],[-82.98417968749998,45.73408203125],[-82.98164062499998,45.721435546875],[-82.97402343749998,45.680908203125]]]}}]}